CUBESAT XI-IV (CO-57)   
1 27848U 03031J   25285.96524732  .00000408  00000+0  19881-3 0  9997
2 27848  98.6816 292.5551 0009145 194.8421 165.2491 14.23422837156204
MOZHAETS 4 (RS-22)      
1 27939U 03042A   25285.92516380  .00001809  00000+0  29172-3 0  9996
2 27939  98.3379  98.5202 0010946 338.3029 180.6675 14.72708909179147
IRS-P6 (RESOURCESAT-1)  
1 28051U 03046A   25285.96445400  .00000193  00000+0  78868-4 0  9996
2 28051  98.2274 329.1564 0064195   5.2043  91.3529 14.36036283145048
SAUDISAT 2              
1 28371U 04025F   25285.93618444  .00000597  00000+0  14508-3 0  9994
2 28371  98.5385 274.7556 0024391 339.1046  20.9153 14.56441524129752
COSMOS 2407             
1 28380U 04028A   25285.69574552  .00000083  00000+0  69555-4 0  9994
2 28380  82.9570 258.0929 0038151 223.1387 310.7933 13.76304176 65839
COSMOS 2414             
1 28521U 05002A   25285.61278848  .00000105  00000+0  75447-4 0  9997
2 28521  82.9500 230.8735 0039184 317.1561  42.6550 13.87891549 49472
INMARSAT 4-F1           
1 28628U 05009A   25285.81309860  .00000024  00000+0  00000+0 0  9991
2 28628   4.8417  42.4747 0003740 184.0299 265.9676  1.00270741 75192
HAMSAT (VO-52)          
1 28650U 05017B   25285.94490542  .00008475  00000+0  57341-3 0  9999
2 28650  98.0070 293.8547 0021655 148.3592 211.8941 15.06602487109494
NOAA 18                 
1 28654U 05018A   25285.90178197  .00000159  00000+0  10725-3 0  9995
2 28654  98.8342   3.9218 0015064 131.4288 228.8182 14.13650889 51379
SJ-7                    
1 28737U 05024A   25285.98746670  .00012884  00000+0  65728-3 0  9990
2 28737  97.7553 304.9182 0018033 162.5330 197.6527 15.16733126110494
CUBESAT XI-V            
1 28895U 05043F   25285.86354238  .00003024  00000+0  49482-3 0  9993
2 28895  98.2679  71.9469 0013317 269.9752  89.9928 14.71521104 65367
CLOUDSAT                
1 29107U 06016A   25285.97197269  .00001945  00000+0  23157-3 0  9993
2 29107  98.4201 304.3043 0006492  59.6703 300.5152 14.85619823 37792
CALIPSO                 
1 29108U 06016B   25285.98001968  .00002178  00000+0  38397-3 0  9996
2 29108  98.4536 288.2647 0001315  69.2440 290.8905 14.68586033 36768
HINODE (SOLAR-B)        
1 29479U 06041A   25285.96772891  .00001082  00000+0  19633-3 0  9998
2 29479  98.0699 300.6733 0017459 357.0822   3.0278 14.68150020 18599
METOP-A                 
1 29499U 06044A   25285.99386583  .00004598  00000+0  53969-3 0  9990
2 29499  98.3294  20.3042 0178376 136.7523 303.2678 14.74653764989002
SHIJIAN-6 02B (SJ-6 02B)
1 29506U 06046B   25285.99871757  .00001910  00000+0  15722-3 0  9993
2 29506  97.6936 312.2823 0012294 159.2380 200.9345 15.00242393 33661
DMSP 5D-3 F17 (USA 191) 
1 29522U 06050A   25285.95489737  .00000231  00000+0  14216-3 0  9997
2 29522  98.7417 292.6006 0010888  46.6800 313.5280 14.14880354977454
LAPAN-TUBSAT            
1 29709U 07001A   25285.95985900  .00000991  00000+0  12120-3 0  9999
2 29709  98.1227 274.8805 0010801 271.0358  88.9619 14.85535888 14447
HAIYANG-1B              
1 31113U 07010A   25285.97034069  .00000177  00000+0  83106-4 0  9993
2 31113  98.3267 272.7722 0012781 210.1124 149.9327 14.30935596965274
BEIDOU-2 M1             
1 31115U 07011A   25280.78138047 -.00000001  00000+0  00000+0 0  9995
2 31115  51.0250 227.6686 0002209 346.8058  13.1597  1.77349203 71673
CAPE-1                  
1 31130U 07012P   25285.83116988  .00002370  00000+0  43980-3 0  9992
2 31130  98.4142 249.3361 0086114 122.5446 238.4110 14.63832259982146
CBERS 2B                
1 32062U 07042A   25285.65049627  .00000456  00000+0  15358-3 0  9996
2 32062  98.3607 230.0689 0031264   2.5596 170.8504 14.41275304949029
COSMO-SKYMED 2          
1 32376U 07059A   25285.93758450  .00000797  00000+0  10673-3 0  9997
2 32376  97.8902 108.1463 0001408  86.3995 273.7379 14.82145840965379
CARTOSAT-2A             
1 32783U 08021A   25285.97830609  .00001101  00000+0  15649-3 0  9998
2 32783  97.8008 337.6766 0011107 188.6716 171.4305 14.78779799942264
CUTE-1.7+APD II (CO-65) 
1 32785U 08021C   25285.92968482  .00009890  00000+0  68279-3 0  9996
2 32785  97.8020 258.2312 0010829 138.2813 221.9241 15.05934235947932
COMPASS-1               
1 32787U 08021E   25285.97792336  .00208746  00000+0  20469-2 0  9995
2 32787  97.6451 284.2732 0002874 122.2840 237.8698 15.65408567951701
SEEDS II (CO-66)        
1 32791U 08021J   25285.50447427  .00024515  00000+0  10622-2 0  9997
2 32791  97.7413 268.6930 0006661  92.2816 267.9182 15.22363081949475
YUBILEINY (RS-30)       
1 32953U 08025A   25285.94918516  .00000022  00000+0  88656-4 0  9992
2 32953  82.5030 149.2351 0019608 129.4245 230.8574 12.43169326788973
FENGYUN 3A              
1 32958U 08026A   25285.57325671  .00000158  00000+0  95281-4 0  9993
2 32958  98.6586 226.4213 0009661 117.5104 242.7056 14.19484866900277
HUANJING 1A (HJ-1A)     
1 33320U 08041A   25285.98141804  .00002248  00000+0  28134-3 0  9997
2 33320  97.6512 276.8380 0017953 226.8583 133.1131 14.83120273921754
HUANJING 1B (HJ-1B)     
1 33321U 08041B   25285.98494078  .00001795  00000+0  22715-3 0  9997
2 33321  97.6376 280.6909 0035215 275.0998  84.6197 14.82592794921774
SHIJIAN-6 03A (SJ-6 03A)
1 33408U 08053A   25285.99394941  .00009519  00000+0  53253-3 0  9998
2 33408  97.8693 305.9402 0013534 135.5609 224.6709 15.13613099925521
SHIJIAN-6 03B (SJ-6 03B)
1 33409U 08053B   25286.02378421  .00002257  00000+0  17151-3 0  9998
2 33409  97.8742 296.8525 0021126 148.5469 211.7024 15.03049078925600
CHUANGXIN 1-02 (CX-1-02)
1 33434U 08056B   25285.97463838  .00000111  00000+0  59850-4 0  9999
2 33434  98.6399 309.4129 0014990 142.8916 217.3306 14.30078977883282
STARS (KUKAI)           
1 33498U 09002G   25285.36978424  .00007942  00000+0  76875-3 0  9990
2 33498  98.1283 218.4358 0006747 268.9814  91.0631 14.93016446901461
KKS-1 (KISEKI)          
1 33499U 09002H   25285.91950036  .00002888  00000+0  36999-3 0  9998
2 33499  98.1124 199.6609 0008636  21.8581 338.2998 14.82082425899557
NOAA 19                 
1 33591U 09005A   25285.92839031  .00000079  00000+0  66296-4 0  9990
2 33591  98.9844 351.2606 0013887  14.0607 346.0949 14.13417396859559
UK-DMC 2                
1 35683U 09041C   25285.95018546  .00001451  00000+0  22091-3 0  9996
2 35683  97.8506  62.6000 0001355  79.1973 280.9389 14.75418743870105
METEOR-M 1              
1 35865U 09049A   25285.66176290  .00000178  00000+0  98466-4 0  9990
2 35865  98.7025 245.4228 0001573 334.1878  25.9221 14.23065092834049
OCEANSAT-2              
1 35931U 09051A   25285.92566331 -.00000120  00000+0 -56459-4 0  9990
2 35931  98.2233 292.6849 0016284 210.2549 149.7679 13.99607169844745
SWISSCUBE               
1 35932U 09051B   25285.98877609  .00001886  00000+0  38851-3 0  9993
2 35932  98.4145 184.4918 0005483 263.4428  96.6148 14.61687836853032
BEESAT-1                
1 35933U 09051C   25285.80977916  .00001610  00000+0  33778-3 0  9995
2 35933  98.4076 184.4368 0004021 282.4322  77.6428 14.61048075853054
ITUPSAT1                
1 35935U 09051E   25285.93050290  .00001465  00000+0  31660-3 0  9994
2 35935  98.4167 183.9937 0006339 291.3835  68.6688 14.59822763852659
DMSP 5D-3 F18 (USA 210) 
1 35951U 09057A   25285.90363278  .00000336  00000+0  19760-3 0  9991
2 35951  98.8756 262.6311 0010068 231.2070 128.8204 14.14719581824627
PROBA-2                 
1 36037U 09059B   25285.90702454  .00000394  00000+0  10267-3 0  9999
2 36037  98.2403 107.7759 0012567 329.2291  30.8168 14.54639939845570
YAOGAN-7                
1 36110U 09069A   25285.95585360  .00000896  00000+0  13209-3 0  9998
2 36110  98.0348 167.9228 0026027 114.6681 245.7243 14.77594374853110
XIWANG-1 (HOPE-1)       
1 36122U 09072B   25285.94199438 -.00000024  00000+0  51596-4 0  9997
2 36122 100.3654 239.1418 0008157  78.9319 281.2711 13.16429569760473
RADUGA-1M 2             
1 36358U 10002A   25285.92262030 -.00000025  00000+0  00000+0 0  9990
2 36358   2.9724  81.9396 0005774 217.8790  84.1793  0.98966649 47576
COSMOS 2463             
1 36519U 10017A   25285.54161660  .00000074  00000+0  64181-4 0  9998
2 36519  82.9582  71.6734 0037482  97.1512 333.5331 13.71641729773983
CARTOSAT-2B             
1 36795U 10035A   25285.94627115 -.00000035  00000+0  21099-5 0  9990
2 36795  97.7945 336.9188 0010452 274.1987  85.8030 14.78721510823318
AISSAT 1                
1 36797U 10035C   25285.64235578  .00004624  00000+0  41995-3 0  9999
2 36797  98.1144 171.0395 0009985 146.7914 213.3935 14.95756032827195
TISAT 1                 
1 36799U 10035E   25285.89309897  .00026104  00000+0  11994-2 0  9996
2 36799  98.0528 207.9878 0005035  56.9874 303.1843 15.20353811829988
YAOGAN-10               
1 36834U 10038A   25285.98069034  .00001040  00000+0  13008-3 0  9996
2 36834  97.9209 306.2414 0001443  96.2459 350.6285 14.84424147820524
SHIJIAN-6 04B (SJ-6 04B)
1 37180U 10051B   25285.97293766  .00001114  00000+0  97879-4 0  9997
2 37180  97.8687 284.0008 0012117  59.2739 300.9675 14.98592750818642
FENGYUN 3B              
1 37214U 10059A   25285.93189721  .00000106  00000+0  78590-4 0  9993
2 37214  99.0007 325.4543 0022429 164.8772 295.7005 14.14765042772462
COSMO-SKYMED 4          
1 37216U 10060A   25285.95027163  .00000804  00000+0  10757-3 0  9995
2 37216  97.8897 108.1599 0001507  85.3588 274.7797 14.82156442807940
O/OREOS (USA 219)       
1 37224U 10062C   25285.96531006  .00004204  00000+0  41779-3 0  9999
2 37224  71.9701 279.7371 0014702 186.6904 173.4072 14.92163603 79745
ELEKTRO-L 1 (GOMS 2)    
1 37344U 11001A   25285.69602069 -.00000250  00000+0  00000+0 0  9990
2 37344   9.1226  56.9694 0002886  52.4748 129.2998  1.00225144 54004
RESOURCESAT-2           
1 37387U 11015A   25285.90417527  .00000179  00000+0  10189-3 0  9991
2 37387  98.7955 349.7046 0005550 200.2681 159.8277 14.21599433751047
